GPS BIIF-5  (PRN 30)    
1 39533U 14008A   17345.54128651 -.00000069  00000-0  00000+0 0  9993
2 39533  54.1990 276.5777 0030304 188.1850 171.7777  2.00572447 27866
